{
  "type": "FeatureCollection",
  "features": [
    {
      "type": "Feature",
      "properties": {
        "norad_id": 41330,
        "name": "COSMOS 2514 (751)",
        "group": "gnss",
        "lat": 3.1896077052939886,
        "lon": 137.5061130913966,
        "alt_km": 19108.51996583326,
        "timestamp": "2025-12-24T11:33:00.258004+00:00",
        "meta_object_name": "COSMOS 2514 (751)",
        "meta_object_id": "2016-008A",
        "meta_epoch": "2025-12-23T18:45:46.770048",
        "meta_mean_motion": 2.13102642,
        "meta_eccentricity": 0.0011634,
        "meta_inclination": 65.1274,
        "meta_ra_of_asc_node": 319.026,
        "meta_arg_of_pericenter": 220.0869,
        "meta_mean_anomaly": 139.8272,
        "meta_ephemeris_type": 0,
        "meta_classification_type": "U",
        "meta_norad_cat_id": 41330,
        "meta_element_set_no": 999,
        "meta_rev_at_epoch": 7688,
        "meta_bstar": 0,
        "meta_mean_motion_dot": -3.5e-07,
        "meta_mean_motion_ddot": 0,
        "tle_line1": "1 41330U 16008A   25357.78179132 -.00000035  00000+0  00000+0 0  9993",
        "tle_line2": "2 41330  65.1274 319.0260 0011634 220.0869 139.8272  2.13102642 76883"
      },
      "geometry": {
        "type": "Point",
        "coordinates": [
          137.5061130913966,
          3.1896077052939886
        ]
      }
    },
    {
      "type": "Feature",
      "properties": {
        "norad_id": 41384,
        "name": "IRNSS-1F",
        "group": "gnss",
        "lat": -1.545816648692779,
        "lon": -60.96714717550782,
        "alt_km": 35692.19993837712,
        "timestamp": "2025-12-24T11:33:00.258017+00:00",
        "meta_object_name": "IRNSS-1F",
        "meta_object_id": "2016-015A",
        "meta_epoch": "2025-12-23T23:33:29.527200",
        "meta_mean_motion": 1.00278072,
        "meta_eccentricity": 0.0022662,
        "meta_inclination": 4.9093,
        "meta_ra_of_asc_node": 101.0199,
        "meta_arg_of_pericenter": 182.1245,
        "meta_mean_anomaly": 195.4962,
        "meta_ephemeris_type": 0,
        "meta_classification_type": "U",
        "meta_norad_cat_id": 41384,
        "meta_element_set_no": 999,
        "meta_rev_at_epoch": 3591,
        "meta_bstar": 0,
        "meta_mean_motion_dot": 1.77e-06,
        "meta_mean_motion_ddot": 0,
        "tle_line1": "1 41384U 16015A   25357.98159175  .00000177  00000+0  00000+0 0  9993",
        "tle_line2": "2 41384   4.9093 101.0199 0022662 182.1245 195.4962  1.00278072 35910"
      },
      "geometry": {
        "type": "Point",
        "coordinates": [
          -60.96714717550782,
          -1.545816648692779
        ]
      }
    },
    {
      "type": "Feature",
      "properties": {
        "norad_id": 41434,
        "name": "BEIDOU-2 IGSO-6 (C13)",
        "group": "gnss",
        "lat": -33.04576403455477,
        "lon": 17.728667830596834,
        "alt_km": 35786.34417792229,
        "timestamp": "2025-12-24T11:33:00.258038+00:00",
        "meta_object_name": "BEIDOU-2 IGSO-6 (C13)",
        "meta_object_id": "2016-021A",
        "meta_epoch": "2025-12-18T14:33:38.837664",
        "meta_mean_motion": 1.00292299,
        "meta_eccentricity": 0.00610054,
        "meta_inclination": 59.9732,
        "meta_ra_of_asc_node": 39.8392,
        "meta_arg_of_pericenter": 230.2031,
        "meta_mean_anomaly": 129.1398,
        "meta_ephemeris_type": 0,
        "meta_classification_type": "U",
        "meta_norad_cat_id": 41434,
        "meta_element_set_no": 999,
        "meta_rev_at_epoch": 3566,
        "meta_bstar": 0,
        "meta_mean_motion_dot": -1.41e-06,
        "meta_mean_motion_ddot": 0,
        "tle_line1": "1 41434U 16021A   25352.60669951 -.00000141  00000+0  00000+0 0  9990",
        "tle_line2": "2 41434  59.9732  39.8392 0061005 230.2031 129.1398  1.00292299 35667"
      },
      "geometry": {
        "type": "Point",
        "coordinates": [
          17.728667830596834,
          -33.04576403455477
        ]
      }
    },
    {
      "type": "Feature",
      "properties": {
        "norad_id": 41469,
        "name": "IRNSS-1G",
        "group": "gnss",
        "lat": -4.336407801089053,
        "lon": 36.11993322562307,
        "alt_km": 35776.59101592401,
        "timestamp": "2025-12-24T11:33:00.258066+00:00",
        "meta_object_name": "IRNSS-1G",
        "meta_object_id": "2016-027A",
        "meta_epoch": "2025-12-23T22:21:51.634368",
        "meta_mean_motion": 1.0027454,
        "meta_eccentricity": 0.0002659,
        "meta_inclination": 4.762,
        "meta_ra_of_asc_node": 101.8111,
        "meta_arg_of_pericenter": 327.5849,
        "meta_mean_anomaly": 128.3342,
        "meta_ephemeris_type": 0,
        "meta_classification_type": "U",
        "meta_norad_cat_id": 41469,
        "meta_element_set_no": 999,
        "meta_rev_at_epoch": 3542,
        "meta_bstar": 0,
        "meta_mean_motion_dot": -3.15e-06,
        "meta_mean_motion_ddot": 0,
        "tle_line1": "1 41469U 16027A   25357.93184762 -.00000315  00000+0  00000+0 0  9990",
        "tle_line2": "2 41469   4.7620 101.8111 0002659 327.5849 128.3342  1.00274540 35428"
      },
      "geometry": {
        "type": "Point",
        "coordinates": [
          36.11993322562307,
          -4.336407801089053
        ]
      }
    },
    {
      "type": "Feature",
      "properties": {
        "norad_id": 41549,
        "name": "GSAT0211 (GALILEO 14)",
        "group": "gnss",
        "lat": -46.03637290231782,
        "lon": -179.72854844642168,
        "alt_km": 23225.200322938475,
        "timestamp": "2025-12-24T11:33:00.258090+00:00",
        "meta_object_name": "GSAT0211 (GALILEO 14)",
        "meta_object_id": "2016-030A",
        "meta_epoch": "2025-12-22T05:38:05.943264",
        "meta_mean_motion": 1.70473275,
        "meta_eccentricity": 0.00040882,
        "meta_inclination": 55.1491,
        "meta_ra_of_asc_node": 226.562,
        "meta_arg_of_pericenter": 17.521,
        "meta_mean_anomaly": 342.5988,
        "meta_ephemeris_type": 0,
        "meta_classification_type": "U",
        "meta_norad_cat_id": 41549,
        "meta_element_set_no": 999,
        "meta_rev_at_epoch": 5965,
        "meta_bstar": 0,
        "meta_mean_motion_dot": 7.3e-07,
        "meta_mean_motion_ddot": 0,
        "tle_line1": "1 41549U 16030A   25356.23479101  .00000073  00000+0  00000+0 0  9999",
        "tle_line2": "2 41549  55.1491 226.5620 0004088  17.5210 342.5988  1.70473275 59659"
      },
      "geometry": {
        "type": "Point",
        "coordinates": [
          -179.72854844642168,
          -46.03637290231782
        ]
      }
    },
    {
      "type": "Feature",
      "properties": {
        "norad_id": 41550,
        "name": "GSAT0210 (GALILEO 13)",
        "group": "gnss",
        "lat": 31.25563043730941,
        "lon": 21.50070041031332,
        "alt_km": 23217.17740167017,
        "timestamp": "2025-12-24T11:33:00.258110+00:00",
        "meta_object_name": "GSAT0210 (GALILEO 13)",
        "meta_object_id": "2016-030B",
        "meta_epoch": "2025-12-23T01:53:26.064096",
        "meta_mean_motion": 1.704734,
        "meta_eccentricity": 5.527e-05,
        "meta_inclination": 55.1484,
        "meta_ra_of_asc_node": 226.5368,
        "meta_arg_of_pericenter": 180.205,
        "meta_mean_anomaly": 179.8969,
        "meta_ephemeris_type": 0,
        "meta_classification_type": "U",
        "meta_norad_cat_id": 41550,
        "meta_element_set_no": 999,
        "meta_rev_at_epoch": 5966,
        "meta_bstar": 0,
        "meta_mean_motion_dot": 7.3e-07,
        "meta_mean_motion_ddot": 0,
        "tle_line1": "1 41550U 16030B   25357.07877389  .00000073  00000+0  00000+0 0  9994",
        "tle_line2": "2 41550  55.1484 226.5368 0000552 180.2050 179.8969  1.70473400 59665"
      },
      "geometry": {
        "type": "Point",
        "coordinates": [
          21.50070041031332,
          31.25563043730941
        ]
      }
    },
    {
      "type": "Feature",
      "properties": {
        "norad_id": 41586,
        "name": "BEIDOU-2 G7 (C03)",
        "group": "gnss",
        "lat": -1.3854186717632178,
        "lon": 16.902930515170187,
        "alt_km": 35773.57180384314,
        "timestamp": "2025-12-24T11:33:00.258131+00:00",
        "meta_object_name": "BEIDOU-2 G7 (C03)",
        "meta_object_id": "2016-037A",
        "meta_epoch": "2025-12-23T23:55:49.888416",
        "meta_mean_motion": 1.00269463,
        "meta_eccentricity": 0.0005208,
        "meta_inclination": 1.7827,
        "meta_ra_of_asc_node": 67.8836,
        "meta_arg_of_pericenter": 1.2708,
        "meta_mean_anomaly": 133.0214,
        "meta_ephemeris_type": 0,
        "meta_classification_type": "U",
        "meta_norad_cat_id": 41586,
        "meta_element_set_no": 999,
        "meta_rev_at_epoch": 513,
        "meta_bstar": 0,
        "meta_mean_motion_dot": -3.33e-06,
        "meta_mean_motion_ddot": 0,
        "tle_line1": "1 41586U 16037A   25357.99710519 -.00000333  00000+0  00000+0 0  9992",
        "tle_line2": "2 41586   1.7827  67.8836 0005208   1.2708 133.0214  1.00269463  5136"
      },
      "geometry": {
        "type": "Point",
        "coordinates": [
          16.902930515170187,
          -1.3854186717632178
        ]
      }
    }
  ]
}